STARLINK-37940          
1 69690U 26145P   26185.91670139 -.00070299  00000+0 -47482-3 0  9992
2 69690  97.2854  32.2840 0002198 118.6459 149.8463 15.75163118  2780
STARLINK-37961          
1 69691U 26145Q   26185.91670139 -.00026588  00000+0 -17823-3 0  9991
2 69691  97.2851  32.2913 0001288  95.4936 190.9840 15.75152633  2786
STARLINK-37787          
1 69692U 26145R   26185.91670139  .00204961  00000+0  13493-2 0  9991
2 69692  97.2850  32.2966 0000729  85.8099 212.6174 15.75070008  2783
STARLINK-37962          
1 69693U 26145S   26185.91670139 -.01870019  00000+0 -13325-1 0  9991
2 69693  97.2849  32.3019 0001705 102.0215 205.1913 15.76873729  2789
STARLINK-37953          
1 69694U 26145T   26185.91670139 -.00028877  00000+0 -19383-3 0  9990
2 69694  97.2851  32.2941 0001625 111.3446 181.1723 15.75135650  2781
STARLINK-37926          
1 69695U 26145U   26185.91670139 -.00042400  00000+0 -28519-3 0  9990
2 69695  97.2850  32.2961 0001557 113.9276 182.5602 15.75158577  2780
STARLINK-37959          
1 69696U 26145V   26185.91670139  .00222735  00000+0  14627-2 0  9994
2 69696  97.2850  32.2987 0001460  90.7294 211.6964 15.75076440  2787
STARLINK-37976          
1 69697U 26145W   26185.91670139  .00188184  00000+0  12415-2 0  9997
2 69697  97.2849  32.3051 0000965 110.5794 207.8721 15.75066420  2789
STARLINK-37912          
1 69698U 26145X   26185.91670139  .00007128  00000+0  48676-4 0  9996
2 69698  97.2849  32.3084 0001404  96.7545 227.6812 15.75162913  2789
STARLINK-37974          
1 69699U 26145Y   26185.91670139  .00004667  00000+0  32196-4 0  9992
2 69699  97.2849  32.3092 0001144  99.6751 228.7690 15.75148715  2781
STARLINK-37955          
1 69700U 26145Z   26185.91670139  .00203963  00000+0  13432-2 0  9995
2 69700  97.2850  32.3162 0000753  72.2884 270.1316 15.75063838  2781
STRIX-8                 
1 69701U 26146A   26185.72908391  .00008730  00000+0  62740-3 0  9992
2 69701  41.9893  71.0686 0008812 316.2932  43.7197 15.04368582  1208
ELECTRON R/B            
1 69702U 26146B   26185.67809132  .00542649  94073-4  16043-2 0  9994
2 69702  42.0758  67.0620 0196531 306.7551  51.5398 15.67017057  1253
ELECTRON KICK STAGE R/B 
1 69703U 26146C   26185.72632151  .00007450  00000+0  52999-3 0  9995
2 69703  41.9877  71.0447 0010555 316.7811  43.2187 15.04885535  1201
STARLINK-38055          
1 69704U 26147A   26185.91670139 -.02298101  00000+0 -11929-1 0  9991
2 69704  97.2831 221.7052 0001161  72.0649 296.3842 15.84475667  2092
STARLINK-37898          
1 69705U 26147B   26185.91670139 -.02110418  00000+0 -10594-1 0  9993
2 69705  97.2833 221.7070 0001340  75.6496 295.9757 15.84844355  2097
STARLINK-37970          
1 69706U 26147C   26185.91670139 -.02121124  00000+0 -10489-1 0  9993
2 69706  97.2834 221.7085 0001248  64.1166 310.7457 15.85174023  2091
STARLINK-37975          
1 69707U 26147D   26185.91670139 -.02100011  00000+0 -10228-1 0  9997
2 69707  97.2833 221.7099 0001227  78.0711 300.0343 15.85451025  2099
STARLINK-37972          
1 69708U 26147E   26185.91670139 -.02086338  00000+0 -10014-1 0  9996
2 69708  97.2835 221.7113 0001324  62.7260 318.5707 15.85728086  2098
STARLINK-37963          
1 69709U 26147F   26185.91670139 -.02066685  00000+0 -97748-2 0  9990
2 69709  97.2835 221.7124 0001381  62.2991 322.1234 15.85996591  2094
STARLINK-37969          
1 69710U 26147G   26185.91670139 -.02054052  00000+0 -95822-2 0  9998
2 69710  97.2836 221.7138 0001209  73.0802 314.4476 15.86259937  2248
STARLINK-37956          
1 69711U 26147H   26185.91670139 -.02024918  00000+0 -92946-2 0  9991
2 69711  97.2836 221.7152 0001364  67.7349 322.6371 15.86541292  2099
STARLINK-38043          
1 69712U 26147J   26185.91670139 -.02015064  00000+0 -91275-2 0  9998
2 69712  97.2835 221.7162 0001205  76.8476 316.5151 15.86797421  2091
STARLINK-38020          
1 69713U 26147K   26185.91670139 -.02002945  00000+0 -89571-2 0  9999
2 69713  97.2837 221.7176 0001254  71.0153 325.3429 15.87037524  2090
STARLINK-38059          
1 69714U 26147L   26185.91670139 -.01993400  00000+0 -87942-2 0  9994
2 69714  97.2837 221.7188 0001303  71.2376 327.9393 15.87296643  2095
STARLINK-38061          
1 69715U 26147M   26185.91670139 -.01970961  00000+0 -85813-2 0  9997
2 69715  97.2837 221.7201 0001285  72.0546 329.9659 15.87528398  2181
STARLINK-38060          
1 69716U 26147N   26185.91670139 -.01915161  00000+0 -84221-2 0  9991
2 69716  97.2838 221.7211 0001321  68.7359 336.0261 15.87774101  2182
STARLINK-38040          
1 69717U 26147P   26185.91670139 -.01900454  00000+0 -82457-2 0  9990
2 69717  97.2840 221.7223 0001296  66.3748 341.0372 15.88015359  2189
STARLINK-37989          
1 69718U 26147Q   26185.91670139 -.01892154  00000+0 -81123-2 0  9997
2 69718  97.2839 221.7233 0001259  70.1754 340.0309 15.88238079  2183
STARLINK-38039          
1 69719U 26147R   26185.91670139 -.01874302  00000+0 -79335-2 0  9995
2 69719  97.2839 221.7244 0001270  70.7841 342.0739 15.88459103  2184
