OBJECT_NAME,OBJECT_ID,EPOCH,MEAN_MOTION,ECCENTRICITY,INCLINATION,RA_OF_ASC_NODE,ARG_OF_PERICENTER,MEAN_ANOMALY,EPHEMERIS_TYPE,CLASSIFICATION_TYPE,NORAD_CAT_ID,ELEMENT_SET_NO,REV_AT_EPOCH,BSTAR,MEAN_MOTION_DOT,MEAN_MOTION_DDOT
STARLINK-37940,2026-145P,2026-07-04T22:00:03.000096,15.75163118,.00021987,97.2854,32.2840,118.6459,149.8463,0,U,69690,999,278,-.47481597E-3,-.70299E-3,0
STARLINK-37961,2026-145Q,2026-07-04T22:00:03.000096,15.75152633,.00012883,97.2851,32.2913,95.4936,190.9840,0,U,69691,999,278,-.1782287E-3,-.26588E-3,0
STARLINK-37787,2026-145R,2026-07-04T22:00:03.000096,15.75070008,.00007294,97.2850,32.2966,85.8099,212.6174,0,U,69692,999,278,.1349257E-2,.204961E-2,0
STARLINK-37962,2026-145S,2026-07-04T22:00:03.000096,15.76873729,.00017058,97.2849,32.3019,102.0215,205.1913,0,U,69693,999,278,-.13324875E-1,-.1870019E-1,0
STARLINK-37953,2026-145T,2026-07-04T22:00:03.000096,15.75135650,.00016256,97.2851,32.2941,111.3446,181.1723,0,U,69694,999,278,-.19383368E-3,-.28877E-3,0
STARLINK-37926,2026-145U,2026-07-04T22:00:03.000096,15.75158577,.00015572,97.2850,32.2961,113.9276,182.5602,0,U,69695,999,278,-.28518931E-3,-.424E-3,0
STARLINK-37959,2026-145V,2026-07-04T22:00:03.000096,15.75076440,.00014605,97.2850,32.2987,90.7294,211.6964,0,U,69696,999,278,.14627134E-2,.222735E-2,0
STARLINK-37976,2026-145W,2026-07-04T22:00:03.000096,15.75066420,.00009658,97.2849,32.3051,110.5794,207.8721,0,U,69697,999,278,.12415441E-2,.188184E-2,0
STARLINK-37912,2026-145X,2026-07-04T22:00:03.000096,15.75162913,.00014045,97.2849,32.3084,96.7545,227.6812,0,U,69698,999,278,.48675629E-4,.7128E-4,0
STARLINK-37974,2026-145Y,2026-07-04T22:00:03.000096,15.75148715,.00011445,97.2849,32.3092,99.6751,228.7690,0,U,69699,999,278,.32196367E-4,.4667E-4,0
STARLINK-37955,2026-145Z,2026-07-04T22:00:03.000096,15.75063838,.00007533,97.2850,32.3162,72.2884,270.1316,0,U,69700,999,278,.13432106E-2,.203963E-2,0
STRIX-8,2026-146A,2026-07-04T17:29:52.849824,15.04368582,.00088127,41.9893,71.0686,316.2932,43.7197,0,U,69701,999,120,.62739947E-3,.873E-4,0
ELECTRON R/B,2026-146B,2026-07-04T16:16:27.090048,15.67017057,.01965313,42.0758,67.0620,306.7551,51.5398,0,U,69702,999,125,.16042701E-2,.542649E-2,.9407345E-4
ELECTRON KICK STAGE R/B,2026-146C,2026-07-04T17:25:54.178464,15.04885535,.00105554,41.9877,71.0447,316.7811,43.2187,0,U,69703,999,120,.52999355E-3,.745E-4,0
STARLINK-38055,2026-147A,2026-07-04T22:00:03.000096,15.84475667,.00011617,97.2831,221.7052,72.0649,296.3842,0,U,69704,999,209,-.11929336E-1,-.2298101E-1,0
STARLINK-37898,2026-147B,2026-07-04T22:00:03.000096,15.84844355,.00013408,97.2833,221.7070,75.6496,295.9757,0,U,69705,999,209,-.10593741E-1,-.2110418E-1,0
STARLINK-37970,2026-147C,2026-07-04T22:00:03.000096,15.85174023,.0001248,97.2834,221.7085,64.1166,310.7457,0,U,69706,999,209,-.10488573E-1,-.2121124E-1,0
STARLINK-37975,2026-147D,2026-07-04T22:00:03.000096,15.85451025,.00012276,97.2833,221.7099,78.0711,300.0343,0,U,69707,999,209,-.10228231E-1,-.2100011E-1,0
STARLINK-37972,2026-147E,2026-07-04T22:00:03.000096,15.85728086,.0001324,97.2835,221.7113,62.7260,318.5707,0,U,69708,999,209,-.10013887E-1,-.2086338E-1,0
STARLINK-37963,2026-147F,2026-07-04T22:00:03.000096,15.85996591,.00013815,97.2835,221.7124,62.2991,322.1234,0,U,69709,999,209,-.97747813E-2,-.2066685E-1,0
STARLINK-37969,2026-147G,2026-07-04T22:00:03.000096,15.86259937,.00012099,97.2836,221.7138,73.0802,314.4476,0,U,69710,999,224,-.95821854E-2,-.2054052E-1,0
STARLINK-37956,2026-147H,2026-07-04T22:00:03.000096,15.86541292,.00013643,97.2836,221.7152,67.7349,322.6371,0,U,69711,999,209,-.9294637E-2,-.2024918E-1,0
STARLINK-38043,2026-147J,2026-07-04T22:00:03.000096,15.86797421,.00012055,97.2835,221.7162,76.8476,316.5151,0,U,69712,999,209,-.91275384E-2,-.2015064E-1,0
STARLINK-38020,2026-147K,2026-07-04T22:00:03.000096,15.87037524,.00012542,97.2837,221.7176,71.0153,325.3429,0,U,69713,999,209,-.89571435E-2,-.2002945E-1,0
STARLINK-38059,2026-147L,2026-07-04T22:00:03.000096,15.87296643,.00013031,97.2837,221.7188,71.2376,327.9393,0,U,69714,999,209,-.87941984E-2,-.19934E-1,0
STARLINK-38061,2026-147M,2026-07-04T22:00:03.000096,15.87528398,.00012855,97.2837,221.7201,72.0546,329.9659,0,U,69715,999,218,-.85812596E-2,-.1970961E-1,0
STARLINK-38060,2026-147N,2026-07-04T22:00:03.000096,15.87774101,.00013213,97.2838,221.7211,68.7359,336.0261,0,U,69716,999,218,-.84221445E-2,-.1915161E-1,0
STARLINK-38040,2026-147P,2026-07-04T22:00:03.000096,15.88015359,.00012969,97.2840,221.7223,66.3748,341.0372,0,U,69717,999,218,-.824568E-2,-.1900454E-1,0
STARLINK-37989,2026-147Q,2026-07-04T22:00:03.000096,15.88238079,.00012593,97.2839,221.7233,70.1754,340.0309,0,U,69718,999,218,-.8112306E-2,-.1892154E-1,0
STARLINK-38039,2026-147R,2026-07-04T22:00:03.000096,15.88459103,.00012709,97.2839,221.7244,70.7841,342.0739,0,U,69719,999,218,-.7933458E-2,-.1874302E-1,0
